{
  "type": "FeatureCollection",
  "features": [
    {
      "type": "Feature",
      "properties": {
        "norad_id": 58701,
        "name": "TIANMU-1 16",
        "group": "weather",
        "lat": 25.54310846628348,
        "lon": 163.0654484001905,
        "alt_km": 491.44755160701425,
        "timestamp": "2025-12-11T18:59:45.708942+00:00",
        "meta_object_name": "TIANMU-1 16",
        "meta_object_id": "2024-004B",
        "meta_epoch": "2025-12-11T06:16:49.360224",
        "meta_mean_motion": 15.24415152,
        "meta_eccentricity": 0.00045787,
        "meta_inclination": 97.4571,
        "meta_ra_of_asc_node": 166.1271,
        "meta_arg_of_pericenter": 303.0986,
        "meta_mean_anomaly": 56.9811,
        "meta_ephemeris_type": 0,
        "meta_classification_type": "U",
        "meta_norad_cat_id": 58701,
        "meta_element_set_no": 999,
        "meta_rev_at_epoch": 10712,
        "meta_bstar": 0.00097204102,
        "meta_mean_motion_dot": 0.00023825,
        "meta_mean_motion_ddot": 0,
        "tle_line1": "1 58701U 24004B   25345.26168241  .00023825  00000+0  97204-3 0  9994",
        "tle_line2": "2 58701  97.4571 166.1271 0004578 303.0986  56.9811 15.24415152107124"
      },
      "geometry": {
        "type": "Point",
        "coordinates": [
          163.0654484001905,
          25.54310846628348
        ]
      }
    },
    {
      "type": "Feature",
      "properties": {
        "norad_id": 58702,
        "name": "TIANMU-1 17",
        "group": "weather",
        "lat": 68.49432235636614,
        "lon": 6.489261026020705,
        "alt_km": 488.19015469914484,
        "timestamp": "2025-12-11T18:59:45.708952+00:00",
        "meta_object_name": "TIANMU-1 17",
        "meta_object_id": "2024-004C",
        "meta_epoch": "2025-12-11T07:29:13.345728",
        "meta_mean_motion": 15.24462478,
        "meta_eccentricity": 0.00037529,
        "meta_inclination": 97.4606,
        "meta_ra_of_asc_node": 166.5864,
        "meta_arg_of_pericenter": 306.8995,
        "meta_mean_anomaly": 53.1898,
        "meta_ephemeris_type": 0,
        "meta_classification_type": "U",
        "meta_norad_cat_id": 58702,
        "meta_element_set_no": 999,
        "meta_rev_at_epoch": 10712,
        "meta_bstar": 0.00096038827,
        "meta_mean_motion_dot": 0.00023569,
        "meta_mean_motion_ddot": 0,
        "tle_line1": "1 58702U 24004C   25345.31196002  .00023569  00000+0  96039-3 0  9997",
        "tle_line2": "2 58702  97.4606 166.5864 0003752 306.8995  53.1898 15.24462478107127"
      },
      "geometry": {
        "type": "Point",
        "coordinates": [
          6.489261026020705,
          68.49432235636614
        ]
      }
    },
    {
      "type": "Feature",
      "properties": {
        "norad_id": 58703,
        "name": "TIANMU-1 18",
        "group": "weather",
        "lat": -21.628964376724326,
        "lon": -15.720075043512495,
        "alt_km": 498.3119063377917,
        "timestamp": "2025-12-11T18:59:45.708963+00:00",
        "meta_object_name": "TIANMU-1 18",
        "meta_object_id": "2024-004D",
        "meta_epoch": "2025-12-11T07:05:10.677408",
        "meta_mean_motion": 15.24449208,
        "meta_eccentricity": 0.00030771,
        "meta_inclination": 97.4622,
        "meta_ra_of_asc_node": 166.7649,
        "meta_arg_of_pericenter": 307.7377,
        "meta_mean_anomaly": 52.3582,
        "meta_ephemeris_type": 0,
        "meta_classification_type": "U",
        "meta_norad_cat_id": 58703,
        "meta_element_set_no": 999,
        "meta_rev_at_epoch": 10712,
        "meta_bstar": 0.00090741696,
        "meta_mean_motion_dot": 0.00022251,
        "meta_mean_motion_ddot": 0,
        "tle_line1": "1 58703U 24004D   25345.29526247  .00022251  00000+0  90742-3 0  9995",
        "tle_line2": "2 58703  97.4622 166.7649 0003077 307.7377  52.3582 15.24449208107120"
      },
      "geometry": {
        "type": "Point",
        "coordinates": [
          -15.720075043512495,
          -21.628964376724326
        ]
      }
    },
    {
      "type": "Feature",
      "properties": {
        "norad_id": 58990,
        "name": "INSAT-3DS",
        "group": "weather",
        "lat": 0.0067791163520910976,
        "lon": 87.7693123167767,
        "alt_km": 35791.75732050261,
        "timestamp": "2025-12-11T18:59:45.708974+00:00",
        "meta_object_name": "INSAT-3DS",
        "meta_object_id": "2024-033A",
        "meta_epoch": "2025-12-11T03:37:49.059264",
        "meta_mean_motion": 1.00275093,
        "meta_eccentricity": 0.00015555,
        "meta_inclination": 0.0367,
        "meta_ra_of_asc_node": 130.251,
        "meta_arg_of_pericenter": 135.2929,
        "meta_mean_anomaly": 311.1059,
        "meta_ephemeris_type": 0,
        "meta_classification_type": "U",
        "meta_norad_cat_id": 58990,
        "meta_element_set_no": 999,
        "meta_rev_at_epoch": 4518,
        "meta_bstar": 0,
        "meta_mean_motion_dot": -1.51e-06,
        "meta_mean_motion_ddot": 0,
        "tle_line1": "1 58990U 24033A   25345.15126226 -.00000151  00000+0  00000+0 0  9993",
        "tle_line2": "2 58990   0.0367 130.2510 0001555 135.2929 311.1059  1.00275093 45183"
      },
      "geometry": {
        "type": "Point",
        "coordinates": [
          87.7693123167767,
          0.0067791163520910976
        ]
      }
    },
    {
      "type": "Feature",
      "properties": {
        "norad_id": 59051,
        "name": "METEOR-M2 4",
        "group": "weather",
        "lat": 4.072514444307335,
        "lon": -57.90772509336748,
        "alt_km": 814.5009531347987,
        "timestamp": "2025-12-11T18:59:45.708986+00:00",
        "meta_object_name": "METEOR-M2 4",
        "meta_object_id": "2024-039A",
        "meta_epoch": "2025-12-11T07:09:32.605920",
        "meta_mean_motion": 14.22400957,
        "meta_eccentricity": 0.00071175,
        "meta_inclination": 98.6764,
        "meta_ra_of_asc_node": 302.2298,
        "meta_arg_of_pericenter": 2.6802,
        "meta_mean_anomaly": 357.4413,
        "meta_ephemeris_type": 0,
        "meta_classification_type": "U",
        "meta_norad_cat_id": 59051,
        "meta_element_set_no": 999,
        "meta_rev_at_epoch": 9255,
        "meta_bstar": 5.983896e-05,
        "meta_mean_motion_dot": 9e-07,
        "meta_mean_motion_ddot": 0,
        "tle_line1": "1 59051U 24039A   25345.29829405  .00000090  00000+0  59839-4 0  9992",
        "tle_line2": "2 59051  98.6764 302.2298 0007117   2.6802 357.4413 14.22400957 92554"
      },
      "geometry": {
        "type": "Point",
        "coordinates": [
          -57.90772509336748,
          4.072514444307335
        ]
      }
    },
    {
      "type": "Feature",
      "properties": {
        "norad_id": 60133,
        "name": "GOES 19",
        "group": "weather",
        "lat": -0.002392131202675709,
        "lon": -69.5062688046776,
        "alt_km": 35781.04140567488,
        "timestamp": "2025-12-11T18:59:45.708997+00:00",
        "meta_object_name": "GOES 19",
        "meta_object_id": "2024-119A",
        "meta_epoch": "2025-12-11T04:35:36.023424",
        "meta_mean_motion": 1.00271097,
        "meta_eccentricity": 0.00013305,
        "meta_inclination": 0.0119,
        "meta_ra_of_asc_node": 101.0793,
        "meta_arg_of_pericenter": 208.8281,
        "meta_mean_anomaly": 123.9656,
        "meta_ephemeris_type": 0,
        "meta_classification_type": "U",
        "meta_norad_cat_id": 60133,
        "meta_element_set_no": 999,
        "meta_rev_at_epoch": 507,
        "meta_bstar": 0,
        "meta_mean_motion_dot": -2.42e-06,
        "meta_mean_motion_ddot": 0,
        "tle_line1": "1 60133U 24119A   25345.19138916 -.00000242  00000+0  00000+0 0  9994",
        "tle_line2": "2 60133   0.0119 101.0793 0001330 208.8281 123.9656  1.00271097  5074"
      },
      "geometry": {
        "type": "Point",
        "coordinates": [
          -69.5062688046776,
          -0.002392131202675709
        ]
      }
    },
    {
      "type": "Feature",
      "properties": {
        "norad_id": 65815,
        "name": "FENGYUN 3H",
        "group": "weather",
        "lat": -69.80869961102098,
        "lon": 80.92505943431289,
        "alt_km": 833.3486227849107,
        "timestamp": "2025-12-11T18:59:45.709007+00:00",
        "meta_object_name": "FENGYUN 3H",
        "meta_object_id": "2025-219A",
        "meta_epoch": "2025-12-11T05:58:33.439296",
        "meta_mean_motion": 14.19904178,
        "meta_eccentricity": 6.08e-05,
        "meta_inclination": 98.6583,
        "meta_ra_of_asc_node": 284.8718,
        "meta_arg_of_pericenter": 89.5494,
        "meta_mean_anomaly": 270.5752,
        "meta_ephemeris_type": 0,
        "meta_classification_type": "U",
        "meta_norad_cat_id": 65815,
        "meta_element_set_no": 999,
        "meta_rev_at_epoch": 1071,
        "meta_bstar": 0.00011267699,
        "meta_mean_motion_dot": 1.96e-06,
        "meta_mean_motion_ddot": 0,
        "tle_line1": "1 65815U 25219A   25345.24899814  .00000196  00000+0  11268-3 0  9994",
        "tle_line2": "2 65815  98.6583 284.8718 0000608  89.5494 270.5752 14.19904178 10718"
      },
      "geometry": {
        "type": "Point",
        "coordinates": [
          80.92505943431289,
          -69.80869961102098
        ]
      }
    }
  ]
}